[{"OBJECT_NAME":"ONEWEB-0598","OBJECT_ID":"2023-004Q","EPOCH":"2026-05-15T04:48:04.925664","MEAN_MOTION":13.11420359,"ECCENTRICITY":0.0001231,"INCLINATION":87.8924,"RA_OF_ASC_NODE":27.6299,"ARG_OF_PERICENTER":63.7517,"MEAN_ANOMALY":296.3737,"EPHEMERIS_TYPE":0,"CLASSIFICATION_TYPE":"U","NORAD_CAT_ID":55154,"ELEMENT_SET_NO":999,"REV_AT_EPOCH":16157,"BSTAR":-0.00087223,"MEAN_MOTION_DOT":-2.96e-06,"MEAN_MOTION_DDOT":0.0},{"OBJECT_NAME":"ONEWEB-0599","OBJECT_ID":"2023-004R","EPOCH":"2026-05-15T05:17:29.753664","MEAN_MOTION":13.17650209,"ECCENTRICITY":0.000181,"INCLINATION":87.9164,"RA_OF_ASC_NODE":12.419,"ARG_OF_PERICENTER":74.9821,"MEAN_ANOMALY":285.1511,"EPHEMERIS_TYPE":0,"CLASSIFICATION_TYPE":"U","NORAD_CAT_ID":55155,"ELEMENT_SET_NO":999,"REV_AT_EPOCH":16314,"BSTAR":6.767800000000001e-06,"MEAN_MOTION_DOT":1.5e-07,"MEAN_MOTION_DDOT":0.0},{"OBJECT_NAME":"ONEWEB-0614","OBJECT_ID":"2023-004S","EPOCH":"2026-05-15T04:40:43.956480","MEAN_MOTION":13.11416782,"ECCENTRICITY":0.0001937,"INCLINATION":87.8916,"RA_OF_ASC_NODE":27.6406,"ARG_OF_PERICENTER":86.5163,"MEAN_ANOMALY":273.6187,"EPHEMERIS_TYPE":0,"CLASSIFICATION_TYPE":"U","NORAD_CAT_ID":55156,"ELEMENT_SET_NO":999,"REV_AT_EPOCH":16151,"BSTAR":-0.0012175,"MEAN_MOTION_DOT":-4.19e-06,"MEAN_MOTION_DDOT":0.0},{"OBJECT_NAME":"ONEWEB-0616","OBJECT_ID":"2023-004T","EPOCH":"2026-05-15T04:28:54.230592","MEAN_MOTION":13.17649195,"ECCENTRICITY":0.0002247,"INCLINATION":87.9164,"RA_OF_ASC_NODE":12.4286,"ARG_OF_PERICENTER":59.0284,"MEAN_ANOMALY":301.1068,"EPHEMERIS_TYPE":0,"CLASSIFICATION_TYPE":"U","NORAD_CAT_ID":55157,"ELEMENT_SET_NO":999,"REV_AT_EPOCH":16335,"BSTAR":0.00018724,"MEAN_MOTION_DOT":8.6e-07,"MEAN_MOTION_DDOT":0.0},{"OBJECT_NAME":"ONEWEB-0617","OBJECT_ID":"2023-004U","EPOCH":"2026-05-15T06:13:30.504576","MEAN_MOTION":13.11414531,"ECCENTRICITY":0.0001889,"INCLINATION":87.8922,"RA_OF_ASC_NODE":27.617,"ARG_OF_PERICENTER":94.0704,"MEAN_ANOMALY":266.064,"EPHEMERIS_TYPE":0,"CLASSIFICATION_TYPE":"U","NORAD_CAT_ID":55158,"ELEMENT_SET_NO":999,"REV_AT_EPOCH":16154,"BSTAR":-0.0011731,"MEAN_MOTION_DOT":-4.03e-06,"MEAN_MOTION_DDOT":0.0},{"OBJECT_NAME":"ONEWEB-0618","OBJECT_ID":"2023-004V","EPOCH":"2026-05-15T04:30:18.868896","MEAN_MOTION":15.12864124,"ECCENTRICITY":0.0014789,"INCLINATION":86.9129,"RA_OF_ASC_NODE":191.0254,"ARG_OF_PERICENTER":63.6542,"MEAN_ANOMALY":296.6214,"EPHEMERIS_TYPE":0,"CLASSIFICATION_TYPE":"U","NORAD_CAT_ID":55159,"ELEMENT_SET_NO":999,"REV_AT_EPOCH":17727,"BSTAR":0.00014560000000000002,"MEAN_MOTION_DOT":2.599e-05,"MEAN_MOTION_DDOT":0.0},{"OBJECT_NAME":"ONEWEB-0619","OBJECT_ID":"2023-004W","EPOCH":"2026-05-15T05:15:04.326912","MEAN_MOTION":13.17648565,"ECCENTRICITY":0.000227,"INCLINATION":87.9177,"RA_OF_ASC_NODE":12.3999,"ARG_OF_PERICENTER":84.6638,"MEAN_ANOMALY":275.4753,"EPHEMERIS_TYPE":0,"CLASSIFICATION_TYPE":"U","NORAD_CAT_ID":55160,"ELEMENT_SET_NO":999,"REV_AT_EPOCH":16325,"BSTAR":8.212800000000001e-05,"MEAN_MOTION_DOT":4.5e-07,"MEAN_MOTION_DDOT":0.0},{"OBJECT_NAME":"ONEWEB-0620","OBJECT_ID":"2023-004X","EPOCH":"2026-05-15T06:06:11.526048","MEAN_MOTION":13.11414977,"ECCENTRICITY":0.0001537,"INCLINATION":87.8915,"RA_OF_ASC_NODE":27.6284,"ARG_OF_PERICENTER":82.4673,"MEAN_ANOMALY":277.6629,"EPHEMERIS_TYPE":0,"CLASSIFICATION_TYPE":"U","NORAD_CAT_ID":55161,"ELEMENT_SET_NO":999,"REV_AT_EPOCH":16151,"BSTAR":-0.00055965,"MEAN_MOTION_DOT":-1.86e-06,"MEAN_MOTION_DDOT":0.0},{"OBJECT_NAME":"ONEWEB-0621","OBJECT_ID":"2023-004Y","EPOCH":"2026-05-15T04:55:22.717056","MEAN_MOTION":13.11417416,"ECCENTRICITY":0.000194,"INCLINATION":87.8924,"RA_OF_ASC_NODE":27.6246,"ARG_OF_PERICENTER":88.1738,"MEAN_ANOMALY":271.9612,"EPHEMERIS_TYPE":0,"CLASSIFICATION_TYPE":"U","NORAD_CAT_ID":55162,"ELEMENT_SET_NO":999,"REV_AT_EPOCH":16148,"BSTAR":-0.00031747,"MEAN_MOTION_DOT":-1e-06,"MEAN_MOTION_DDOT":0.0},{"OBJECT_NAME":"ONEWEB-0622","OBJECT_ID":"2023-004Z","EPOCH":"2026-05-15T05:02:42.378144","MEAN_MOTION":13.11418615,"ECCENTRICITY":0.0001782,"INCLINATION":87.8929,"RA_OF_ASC_NODE":27.625,"ARG_OF_PERICENTER":104.4951,"MEAN_ANOMALY":255.6375,"EPHEMERIS_TYPE":0,"CLASSIFICATION_TYPE":"U","NORAD_CAT_ID":55163,"ELEMENT_SET_NO":999,"REV_AT_EPOCH":16147,"BSTAR":-0.00056605,"MEAN_MOTION_DOT":-1.88e-06,"MEAN_MOTION_DDOT":0.0},{"OBJECT_NAME":"ONEWEB-0623","OBJECT_ID":"2023-004AA","EPOCH":"2026-05-15T05:07:46.192512","MEAN_MOTION":13.17650522,"ECCENTRICITY":0.0002338,"INCLINATION":87.9161,"RA_OF_ASC_NODE":12.4354,"ARG_OF_PERICENTER":99.035,"MEAN_ANOMALY":261.1046,"EPHEMERIS_TYPE":0,"CLASSIFICATION_TYPE":"U","NORAD_CAT_ID":55164,"ELEMENT_SET_NO":999,"REV_AT_EPOCH":16324,"BSTAR":8.193200000000001e-05,"MEAN_MOTION_DOT":4.5e-07,"MEAN_MOTION_DDOT":0.0},{"OBJECT_NAME":"ONEWEB-0624","OBJECT_ID":"2023-004AB","EPOCH":"2026-05-15T02:53:02.652576","MEAN_MOTION":13.12928098,"ECCENTRICITY":0.0001871,"INCLINATION":87.8966,"RA_OF_ASC_NODE":357.1661,"ARG_OF_PERICENTER":88.4652,"MEAN_ANOMALY":271.6691,"EPHEMERIS_TYPE":0,"CLASSIFICATION_TYPE":"U","NORAD_CAT_ID":55165,"ELEMENT_SET_NO":999,"REV_AT_EPOCH":16373,"BSTAR":-0.00020037,"MEAN_MOTION_DOT":-6e-07,"MEAN_MOTION_DDOT":0.0},{"OBJECT_NAME":"ONEWEB-0625","OBJECT_ID":"2023-004AC","EPOCH":"2026-05-15T03:03:51.397344","MEAN_MOTION":13.17648506,"ECCENTRICITY":0.0001894,"INCLINATION":87.9165,"RA_OF_ASC_NODE":12.4473,"ARG_OF_PERICENTER":77.6972,"MEAN_ANOMALY":282.4371,"EPHEMERIS_TYPE":0,"CLASSIFICATION_TYPE":"U","NORAD_CAT_ID":55166,"ELEMENT_SET_NO":999,"REV_AT_EPOCH":16322,"BSTAR":2.4617e-05,"MEAN_MOTION_DOT":2.2e-07,"MEAN_MOTION_DDOT":0.0},{"OBJECT_NAME":"ONEWEB-0626","OBJECT_ID":"2023-004AD","EPOCH":"2026-05-15T04:38:36.391200","MEAN_MOTION":13.1764996,"ECCENTRICITY":0.0001389,"INCLINATION":87.9161,"RA_OF_ASC_NODE":12.4342,"ARG_OF_PERICENTER":79.995,"MEAN_ANOMALY":280.1338,"EPHEMERIS_TYPE":0,"CLASSIFICATION_TYPE":"U","NORAD_CAT_ID":55167,"ELEMENT_SET_NO":999,"REV_AT_EPOCH":16323,"BSTAR":0.00017208000000000002,"MEAN_MOTION_DOT":8e-07,"MEAN_MOTION_DDOT":0.0},{"OBJECT_NAME":"ONEWEB-0627","OBJECT_ID":"2023-004AE","EPOCH":"2026-05-15T04:21:36.294912","MEAN_MOTION":13.17650326,"ECCENTRICITY":0.0002155,"INCLINATION":87.9162,"RA_OF_ASC_NODE":12.4368,"ARG_OF_PERICENTER":95.0678,"MEAN_ANOMALY":265.0699,"EPHEMERIS_TYPE":0,"CLASSIFICATION_TYPE":"U","NORAD_CAT_ID":55168,"ELEMENT_SET_NO":999,"REV_AT_EPOCH":16323,"BSTAR":0.00024449000000000004,"MEAN_MOTION_DOT":1.08e-06,"MEAN_MOTION_DDOT":0.0},{"OBJECT_NAME":"ONEWEB-0628","OBJECT_ID":"2023-004AF","EPOCH":"2026-05-15T03:58:29.461728","MEAN_MOTION":13.12440747,"ECCENTRICITY":0.0002309,"INCLINATION":87.8968,"RA_OF_ASC_NODE":357.2187,"ARG_OF_PERICENTER":96.9958,"MEAN_ANOMALY":263.1433,"EPHEMERIS_TYPE":0,"CLASSIFICATION_TYPE":"U","NORAD_CAT_ID":55169,"ELEMENT_SET_NO":999,"REV_AT_EPOCH":16370,"BSTAR":-4.7129e-05,"MEAN_MOTION_DOT":-4e-08,"MEAN_MOTION_DDOT":0.0}]