ONEWEB-0598             
1 55154U 23004Q   26135.20005701 -.00000296  00000+0 -87223-3 0  9994
2 55154  87.8924  27.6299 0001231  63.7517 296.3737 13.11420359161577
ONEWEB-0599             
1 55155U 23004R   26135.22048326  .00000015  00000+0  67678-5 0  9998
2 55155  87.9164  12.4190 0001810  74.9821 285.1511 13.17650209163148
ONEWEB-0614             
1 55156U 23004S   26135.19495320 -.00000419  00000+0 -12175-2 0  9994
2 55156  87.8916  27.6406 0001937  86.5163 273.6187 13.11416782161519
ONEWEB-0616             
1 55157U 23004T   26135.18673878  .00000086  00000+0  18724-3 0  9995
2 55157  87.9164  12.4286 0002247  59.0284 301.1068 13.17649195163359
ONEWEB-0617             
1 55158U 23004U   26135.25938084 -.00000403  00000+0 -11731-2 0  9992
2 55158  87.8922  27.6170 0001889  94.0704 266.0640 13.11414531161540
ONEWEB-0618             
1 55159U 23004V   26135.18771839  .00002599  00000+0  14560-3 0  9998
2 55159  86.9129 191.0254 0014789  63.6542 296.6214 15.12864124177277
ONEWEB-0619             
1 55160U 23004W   26135.21880008  .00000045  00000+0  82128-4 0  9993
2 55160  87.9177  12.3999 0002270  84.6638 275.4753 13.17648565163253
ONEWEB-0620             
1 55161U 23004X   26135.25430007 -.00000186  00000+0 -55965-3 0  9994
2 55161  87.8915  27.6284 0001537  82.4673 277.6629 13.11414977161514
ONEWEB-0621             
1 55162U 23004Y   26135.20512404 -.00000100  00000+0 -31747-3 0  9990
2 55162  87.8924  27.6246 0001940  88.1738 271.9612 13.11417416161482
ONEWEB-0622             
1 55163U 23004Z   26135.21021271 -.00000188  00000+0 -56605-3 0  9995
2 55163  87.8929  27.6250 0001782 104.4951 255.6375 13.11418615161472
ONEWEB-0623             
1 55164U 23004AA  26135.21372908  .00000045  00000+0  81932-4 0  9994
2 55164  87.9161  12.4354 0002338  99.0350 261.1046 13.17650522163244
ONEWEB-0624             
1 55165U 23004AB  26135.12016959 -.00000060  00000+0 -20037-3 0  9993
2 55165  87.8966 357.1661 0001871  88.4652 271.6691 13.12928098163732
ONEWEB-0625             
1 55166U 23004AC  26135.12767821  .00000022  00000+0  24617-4 0  9990
2 55166  87.9165  12.4473 0001894  77.6972 282.4371 13.17648506163224
ONEWEB-0626             
1 55167U 23004AD  26135.19347675  .00000080  00000+0  17208-3 0  9990
2 55167  87.9161  12.4342 0001389  79.9950 280.1338 13.17649960163230
ONEWEB-0627             
1 55168U 23004AE  26135.18167008  .00000108  00000+0  24449-3 0  9996
2 55168  87.9162  12.4368 0002155  95.0678 265.0699 13.17650326163238
ONEWEB-0628             
1 55169U 23004AF  26135.16561877 -.00000004  00000+0 -47129-4 0  9995
2 55169  87.8968 357.2187 0002309  96.9958 263.1433 13.12440747163709
